DUPLEX                  
1 66906U 98067XS  26081.04078204  .00034012  00000+0  46722-3 0  9992
2 66906  51.6305   7.6356 0003095 165.6080 194.5000 15.56978063 17051
ISS OBJECT XT           
1 66907U 98067XT  26081.04792705  .00207763  00000+0  14285-2 0  9995
2 66907  51.6258   2.4058 0005317 159.5526 200.5686 15.73470745 17126
ISS OBJECT XU           
1 66908U 98067XU  26081.04503716  .00209827  00000+0  14326-2 0  9997
2 66908  51.6253   2.3825 0005519 158.4506 201.6726 15.73628129 17121
SILVERSAT               
1 66909U 98067XV  26081.01897067  .00292872  00000+0  16493-2 0  9999
2 66909  51.6232   1.4518 0006012 164.3213 195.7975 15.77783602 17130
ISS OBJECT XW           
1 66910U 98067XW  26081.04959972  .00190918  00000+0  13779-2 0  9990
2 66910  51.6254   2.4094 0005916 160.5806 199.5419 15.72382952 17126
ISS OBJECT XX           
1 66911U 98067XX  26080.79564983  .00462250  00000+0  20542-2 0  9993
2 66911  51.6202   1.4317 0007596 165.5607 194.5614 15.82512156 17109
ISS OBJECT XY           
1 66912U 98067XY  26080.52366142  .00129023  00000+0  12252-2 0  9999
2 66912  51.6282   7.1735 0003878 158.9718 201.1438 15.65954710 17008
KNACKSAT-2              
1 67683U 98067XZ  26081.02346427  .00048297  00000+0  76673-3 0  9996
2 67683  51.6319  10.5197 0009779 229.8924 130.1210 15.52813480  6706
CORAL                   
1 67684U 98067YA  26081.10080672  .00096553  00000+0  13311-2 0  9990
2 67684  51.6311   9.5362 0012187 219.6272 140.3830 15.56342856  6722
GXIBA-1                 
1 67685U 98067YB  26081.27305036  .00038654  00000+0  60489-3 0  9990
2 67685  51.6327   9.1857 0011628 227.8880 132.1122 15.53290377  6742
UITMSAT-2               
1 67686U 98067YC  26081.06921150  .00064299  00000+0  97068-3 0  9996
2 67686  51.6330  10.0770 0008720 197.5309 162.5382 15.54090854  6711
HMU-SAT2                
1 67687U 98067YD  26081.08387994  .00053693  00000+0  84410-3 0  9994
2 67687  51.6325  10.1754 0008335 200.1603 159.9059 15.53052965  6631
LEOPARD                 
1 67688U 98067YE  26080.10933344  .00050861  00000+0  78512-3 0  9993
2 67688  51.6330  14.9166 0008406 194.0087 166.0671 15.53580320  6486
CREW DRAGON 12          
1 67796U 26031A   26081.16296743  .00015089  00000+0  28686-3 0  9997
2 67796  51.6343  10.6992 0006186 218.8034 141.2511 15.48444672558180
PROGRESS-MS 33          
1 68319U 26058A   26081.80143998  .00155125  21460-4  28078-3 0  9991
2 68319  51.6361   8.2209 0011697 151.7216 208.4431 16.01056080    20
SL-4 R/B                
1 68320U 26058B   26081.79916291  .01134033  12081-4  28376-3 0  9991
2 68320  51.6529   8.2812 0023871  70.6142 289.7457 16.27373014    52
